ONEWEB-0553             
1 56055U 23043K   24090.87826770  .00000085  00000+0  18890-3 0  9994
2 56055  87.9138  29.6522 0002195  90.7648 269.3734 13.16596606 52617
ONEWEB-0554             
1 56056U 23043L   24090.86560324 -.00000044  00000+0 -14917-3 0  9997
2 56056  87.9137  29.6744 0002190  60.8429 299.2920 13.16596099 52595
ONEWEB-0555             
1 56057U 23043M   24090.90360069  .00000122  00000+0  28441-3 0  9999
2 56057  87.9135  29.6403 0002643  84.5160 275.6273 13.16596783 52605
ONEWEB-0558             
1 56059U 23043P   24090.92926394  .00000087  00000+0  17814-3 0  9994
2 56059  87.9281  44.8475 0001392  84.1130 276.0163 13.21829407 51464
ONEWEB-0566             
1 56061U 23043R   24090.91193789  .00000100  00000+0  21095-3 0  9992
2 56061  87.9279  44.8507 0001177  79.1626 280.9640 13.21826397 51453
ONEWEB-0568             
1 56062U 23043S   24090.85927187  .00000005  00000+0 -19398-4 0  9992
2 56062  87.9136  29.6391 0002213  85.8866 274.2518 13.16595979 52612
